CZ-2D R/B               
1 28738U 05024B   26197.32436068  .00040167  00000+0  29721-3 0  9997
2 28738  97.3467 218.2783 0002619 189.5497 170.5717 15.72846217159914
ALOS (DAICHI)           
1 28931U 06002A   26197.42627535  .00000461  00000+0  84988-4 0  9991
2 28931  98.1339 152.9061 0000847 102.5582 257.5718 14.70103207 92397
H-2A R/B                
1 28932U 06002B   26197.51461038  .00004961  00000+0  23675-3 0  9990
2 28932  98.2596 356.0096 0050870 161.5725 198.7365 15.18458470113974
RESURS-DK 1             
1 29228U 06021A   26197.45020317  .00000852  00000+0  53811-4 0  9995
2 29228  69.9306 263.7966 0007178 269.6714  90.3630 15.13321208107000
CZ-4B R/B               
1 29507U 06046C   26197.58857337  .00002237  00000+0  11203-3 0  9993
2 29507  97.5434 242.1056 0032739 177.3236 182.8179 15.17987953 79591
CZ-2C R/B               
1 31114U 07010B   26197.29601246  .00000032  00000+0  34017-4 0  9996
2 31114  98.4121 304.2264 0057758 280.5042  78.9631 14.20281960997979
COSMO-SKYMED 1          
1 31598U 07023A   26197.60884359  .00001464  00000+0  13174-3 0  9999
2 31598  97.8847  29.7137 0001542 102.4995 257.6399 14.97223628 34194
COSMOS 2428             
1 31792U 07029A   26197.45317941  .00000260  00000+0  16498-3 0  9997
2 31792  70.9382 293.0304 0007222  78.6139 281.5793 14.12935216982289
SL-16 R/B               
1 31793U 07029B   26197.45529412  .00000230  00000+0  14412-3 0  9997
2 31793  70.9744 261.7040 0001937 256.6178 192.2201 14.14852343983586
KORONAS-FOTON           
1 33504U 09003A   26197.59265601  .00008235  00000+0  16578-3 0  9993
2 33504  82.4312 141.5724 0012043  58.2403 302.0018 15.46320967965640
CZ-2C R/B               
1 37731U 11030B   26197.49961385  .00000449  00000+0  62940-4 0  9997
2 37731  97.8670 152.3610 0050763 291.7928 188.8289 14.81533720809169
H-2A R/B                
1 38341U 12025E   26197.45692551  .00000545  00000+0  54255-4 0  9999
2 38341  98.4847 175.0215 0042552 250.8196 108.8415 14.95839174767469
SHIJIAN-16 (SJ-16)      
1 39358U 13057A   26197.59673089  .00001033  00000+0  10281-3 0  9997
2 39358  74.9744 300.9797 0015716 161.4192 198.7574 14.92674681690738
SL-4 R/B                
1 39679U 14021B   26197.35235615  .00005012  00000+0  10774-3 0  9996
2 39679  51.6065  67.8305 0089608 212.7417 146.7995 15.42496747676114
ALOS-2                  
1 39766U 14029A   26197.62709792  .00000853  00000+0  12108-3 0  9994
2 39766  97.9234 294.3700 0001594  91.1008 269.0386 14.79469421655939
YAOGAN-29               
1 41038U 15069A   26197.59366191  .00000537  00000+0  72604-4 0  9999
2 41038  98.0016 226.2714 0000668  11.6921 348.4308 14.83109169574981
ASTRO-H (HITOMI)        
1 41337U 16012A   26197.43876428  .00001205  00000+0  65372-4 0  9999
2 41337  30.9980 245.2550 0009617 187.9350 172.1137 15.10635248571716
HXMT (HUIYAN)           
1 42758U 17034A   26197.60109766  .00002322  00000+0  12008-3 0  9993
2 42758  43.0154  19.2286 0032126 329.5171  30.3810 15.18696403502134
SAOCOM 1A               
1 43641U 18076A   26197.63816098  .00000048  00000+0  12560-4 0  9995
2 43641  97.8881  23.9585 0001459  85.4266 274.7114 14.82148314420461
H-2A R/B                
1 43682U 18084L   26197.64749371  .00012229  00000+0  24908-3 0  9991
2 43682  98.8528  82.9967 0020461 295.2060  64.7063 15.46238091425672
SAOCOM 1B               
1 46265U 20059A   26197.60184403  .00000174  00000+0  28428-4 0  9999
2 46265  97.8884  23.0189 0001508  83.6941 276.4444 14.82158277317846
CSS (TIANHE)            
1 48274U 21035A   26197.56097431  .00001173  00000+0  19394-4 0  9997
2 48274  41.4698 143.5547 0002175 301.3971  58.6654 15.58128282297753
COSMOS 2550             
1 48865U 21056A   26197.62861006  .00002751  00000+0  89397-4 0  9993
2 48865  67.1436  10.8468 0008523 270.1056  89.9122 15.33836390283236
CZ-2C R/B               
1 52794U 22058K   26197.52431567  .00027151  00000+0  28063-3 0  9999
2 52794  50.1854  10.6251 0030231  28.2348 332.0257 15.63930727230238
CZ-2C R/B               
1 54039U 22132E   26197.47274731  .00042145  00000+0  28234-3 0  9998
2 54039  97.2888 205.8835 0009199 336.0562  24.0274 15.75107340210554
GSLV R/B                
1 54149U 22138AN  26197.32289931  .00001350  00000+0  11303-3 0  9990
2 54149  87.3817 123.2008 0023420  48.5168 311.8070 14.97385341203176
XRISM                   
1 57800U 23137A   26197.35809358  .00002060  00000+0  10935-3 0  9990
2 57800  31.0009 170.6085 0007880 257.7036 102.2721 15.12673704157289
ACS3                    
1 59588U 24077B   26197.32995647  .00005940  00000+0  41236-2 0  9990
2 59588  97.1745 109.6610 0126899  35.3684 325.5819 13.95283028112106
SPACEMOBILE-003         
1 61045U 24163A   26197.33061939  .00001005  00000+0  59791-4 0  9991
2 61045  52.9669 175.4223 0004666 197.1452 162.9385 15.20707825102206
SPACEMOBILE-005         
1 61046U 24163B   26197.44549703  .00002622  00000+0  13229-3 0  9995
2 61046  52.9760 174.8439 0008664 199.5562 160.5101 15.20723000102215
SPACEMOBILE-001         
1 61047U 24163C   26197.37810403  .00000103  00000+0  19358-4 0  9998
2 61047  52.9728 174.8637 0007106 197.0870 162.9886 15.20742349102207
SPACEMOBILE-002         
1 61048U 24163D   26197.29622621 -.00001100  00000+0 -34612-4 0  9993
2 61048  52.9781 175.2802 0005866 196.1534 163.9275 15.20776804102198
SPACEMOBILE-004         
1 61049U 24163E   26196.62160951  .00012160  00000+0  55841-3 0  9995
2 61049  52.9675 178.1586 0006579 225.4338 134.6120 15.20780797102091
CZ-8A R/B               
1 66004U 25231K   26197.60900077 -.00000035  00000+0  46054-4 0  9994
2 66004  50.0040 274.1439 0116572 327.5851  31.7941 14.30162420 39156
SZ-21 MODULE            
1 66515U 25246C   26196.95471448  .00035292  00000+0  19466-3 0  9997
2 66515  41.4721 127.8201 0008592 225.8060 134.2080 15.78866927 38280
SPACEMOBILE-006         
1 67232U 25309A   26197.39546061  .00000913  00000+0  58828-4 0  9995
2 67232  52.9935 197.8358 0009990 219.1469 140.8802 15.18656625 31030
SPACEMOBILE-008         
1 69589U 26139A   26197.20988309  .00000129  00000+0  24228-4 0  9995
2 69589  52.9949 130.8006 0005108  58.8976 301.2516 15.12802700  4370
SPACEMOBILE-009         
1 69590U 26139B   26197.07977669  .00000164  00000+0  26252-4 0  9997
2 69590  52.9940 131.4074 0005333  54.4529 305.6959 15.12696048  4354
SPACEMOBILE-010         
1 69591U 26139C   26197.54552913  .00000432  00000+0  41587-4 0  9997
2 69591  52.9947 129.3313 0005294  47.6592 312.4847 15.12529797  4431
